{
  "type": "FeatureCollection",
  "features": [
    {
      "type": "Feature",
      "properties": {
        "norad_id": 28054,
        "name": "DMSP 5D-3 F16 (USA 172)",
        "group": "weather",
        "lat": 20.825119008394676,
        "lon": -158.82070253529753,
        "alt_km": 846.2980079426352,
        "timestamp": "2025-12-26T03:50:11.729726+00:00",
        "meta_object_name": "DMSP 5D-3 F16 (USA 172)",
        "meta_object_id": "2003-048A",
        "meta_epoch": "2025-12-25T18:50:02.882112",
        "meta_mean_motion": 14.14428702,
        "meta_eccentricity": 0.0006243,
        "meta_inclination": 99.0038,
        "meta_ra_of_asc_node": 17.3438,
        "meta_arg_of_pericenter": 278.9283,
        "meta_mean_anomaly": 130.9922,
        "meta_ephemeris_type": 0,
        "meta_classification_type": "U",
        "meta_norad_cat_id": 28054,
        "meta_element_set_no": 999,
        "meta_rev_at_epoch": 14497,
        "meta_bstar": 8.061e-05,
        "meta_mean_motion_dot": 1.09e-06,
        "meta_mean_motion_ddot": 0,
        "tle_line1": "1 28054U 03048A   25359.78475558  .00000109  00000+0  80610-4 0  9995",
        "tle_line2": "2 28054  99.0038  17.3438 0006243 278.9283 130.9922 14.14428702144974"
      },
      "geometry": {
        "type": "Point",
        "coordinates": [
          -158.82070253529753,
          20.825119008394676
        ]
      }
    },
    {
      "type": "Feature",
      "properties": {
        "norad_id": 28912,
        "name": "METEOSAT-9 (MSG-2)",
        "group": "weather",
        "lat": 5.639555790235295,
        "lon": -162.91194716830245,
        "alt_km": 36021.35898349034,
        "timestamp": "2025-12-26T03:50:11.729778+00:00",
        "meta_object_name": "METEOSAT-9 (MSG-2)",
        "meta_object_id": "2005-049B",
        "meta_epoch": "2025-12-24T18:27:10.310976",
        "meta_mean_motion": 1.00268275,
        "meta_eccentricity": 0.00719695,
        "meta_inclination": 8.9553,
        "meta_ra_of_asc_node": 55.846,
        "meta_arg_of_pericenter": 282.2974,
        "meta_mean_anomaly": 77.0088,
        "meta_ephemeris_type": 0,
        "meta_classification_type": "U",
        "meta_norad_cat_id": 28912,
        "meta_element_set_no": 999,
        "meta_rev_at_epoch": 524,
        "meta_bstar": 0,
        "meta_mean_motion_dot": 1.45e-06,
        "meta_mean_motion_ddot": 0,
        "tle_line1": "1 28912U 05049B   25358.76886934  .00000145  00000+0  00000+0 0  9992",
        "tle_line2": "2 28912   8.9553  55.8460 0071969 282.2974  77.0088  1.00268275  5240"
      },
      "geometry": {
        "type": "Point",
        "coordinates": [
          -162.91194716830245,
          5.639555790235295
        ]
      }
    },
    {
      "type": "Feature",
      "properties": {
        "norad_id": 29522,
        "name": "DMSP 5D-3 F17 (USA 191)",
        "group": "weather",
        "lat": 56.164414483906285,
        "lon": -161.4648164100363,
        "alt_km": 833.8000724051863,
        "timestamp": "2025-12-26T03:50:11.729796+00:00",
        "meta_object_name": "DMSP 5D-3 F17 (USA 191)",
        "meta_object_id": "2006-050A",
        "meta_epoch": "2025-12-25T18:46:19.634016",
        "meta_mean_motion": 14.1492498,
        "meta_eccentricity": 0.0009966,
        "meta_inclination": 98.7393,
        "meta_ra_of_asc_node": 4.8997,
        "meta_arg_of_pericenter": 186.0712,
        "meta_mean_anomaly": 174.0342,
        "meta_ephemeris_type": 0,
        "meta_classification_type": "U",
        "meta_norad_cat_id": 29522,
        "meta_element_set_no": 999,
        "meta_rev_at_epoch": 98789,
        "meta_bstar": 0.00010554,
        "meta_mean_motion_dot": 1.61e-06,
        "meta_mean_motion_ddot": 0,
        "tle_line1": "1 29522U 06050A   25359.78217169  .00000161  00000+0  10554-3 0  9991",
        "tle_line2": "2 29522  98.7393   4.8997 0009966 186.0712 174.0342 14.14924980987897"
      },
      "geometry": {
        "type": "Point",
        "coordinates": [
          -161.4648164100363,
          56.164414483906285
        ]
      }
    },
    {
      "type": "Feature",
      "properties": {
        "norad_id": 32958,
        "name": "FENGYUN 3A",
        "group": "weather",
        "lat": 57.397320941555215,
        "lon": -74.39890472028164,
        "alt_km": 826.246595713922,
        "timestamp": "2025-12-26T03:50:11.729810+00:00",
        "meta_object_name": "FENGYUN 3A",
        "meta_object_id": "2008-026A",
        "meta_epoch": "2025-12-25T20:47:43.211040",
        "meta_mean_motion": 14.19518678,
        "meta_eccentricity": 0.0007606,
        "meta_inclination": 98.6714,
        "meta_ra_of_asc_node": 299.1179,
        "meta_arg_of_pericenter": 267.7947,
        "meta_mean_anomaly": 92.2359,
        "meta_ephemeris_type": 0,
        "meta_classification_type": "U",
        "meta_norad_cat_id": 32958,
        "meta_element_set_no": 999,
        "meta_rev_at_epoch": 91081,
        "meta_bstar": 8.5574e-05,
        "meta_mean_motion_dot": 1.37e-06,
        "meta_mean_motion_ddot": 0,
        "tle_line1": "1 32958U 08026A   25359.86647235  .00000137  00000+0  85574-4 0  9991",
        "tle_line2": "2 32958  98.6714 299.1179 0007606 267.7947  92.2359 14.19518678910812"
      },
      "geometry": {
        "type": "Point",
        "coordinates": [
          -74.39890472028164,
          57.397320941555215
        ]
      }
    },
    {
      "type": "Feature",
      "properties": {
        "norad_id": 35491,
        "name": "GOES 14",
        "group": "weather",
        "lat": -0.9543834971090068,
        "lon": 34.25651646168574,
        "alt_km": 35836.58056077147,
        "timestamp": "2025-12-26T03:50:11.729824+00:00",
        "meta_object_name": "GOES 14",
        "meta_object_id": "2009-033A",
        "meta_epoch": "2025-12-25T15:55:40.730304",
        "meta_mean_motion": 1.00097035,
        "meta_eccentricity": 7.19e-05,
        "meta_inclination": 1.2354,
        "meta_ra_of_asc_node": 85.272,
        "meta_arg_of_pericenter": 193.0437,
        "meta_mean_anomaly": 297.1266,
        "meta_ephemeris_type": 0,
        "meta_classification_type": "U",
        "meta_norad_cat_id": 35491,
        "meta_element_set_no": 999,
        "meta_rev_at_epoch": 485,
        "meta_bstar": 0,
        "meta_mean_motion_dot": 3.9e-07,
        "meta_mean_motion_ddot": 0,
        "tle_line1": "1 35491U 09033A   25359.66366586  .00000039  00000+0  00000+0 0  9997",
        "tle_line2": "2 35491   1.2354  85.2720 0000719 193.0437 297.1266  1.00097035  4852"
      },
      "geometry": {
        "type": "Point",
        "coordinates": [
          34.25651646168574,
          -0.9543834971090068
        ]
      }
    },
    {
      "type": "Feature",
      "properties": {
        "norad_id": 35951,
        "name": "DMSP 5D-3 F18 (USA 210)",
        "group": "weather",
        "lat": -16.757856317336092,
        "lon": -20.805760808748563,
        "alt_km": 841.8085124011859,
        "timestamp": "2025-12-26T03:50:11.729836+00:00",
        "meta_object_name": "DMSP 5D-3 F18 (USA 210)",
        "meta_object_id": "2009-057A",
        "meta_epoch": "2025-12-25T19:25:47.379360",
        "meta_mean_motion": 14.147778,
        "meta_eccentricity": 0.001167,
        "meta_inclination": 98.885,
        "meta_ra_of_asc_node": 336.1459,
        "meta_arg_of_pericenter": 28.173,
        "meta_mean_anomaly": 332.0072,
        "meta_ephemeris_type": 0,
        "meta_classification_type": "U",
        "meta_norad_cat_id": 35951,
        "meta_element_set_no": 999,
        "meta_rev_at_epoch": 83507,
        "meta_bstar": 0.00017182,
        "meta_mean_motion_dot": 2.87e-06,
        "meta_mean_motion_ddot": 0,
        "tle_line1": "1 35951U 09057A   25359.80957615  .00000287  00000+0  17182-3 0  9997",
        "tle_line2": "2 35951  98.8850 336.1459 0011670  28.1730 332.0072 14.14777800835079"
      },
      "geometry": {
        "type": "Point",
        "coordinates": [
          -20.805760808748563,
          -16.757856317336092
        ]
      }
    },
    {
      "type": "Feature",
      "properties": {
        "norad_id": 36411,
        "name": "EWS-G2 (GOES 15)",
        "group": "weather",
        "lat": 0.6615392838390184,
        "lon": -146.24518026662918,
        "alt_km": 35771.451823600415,
        "timestamp": "2025-12-26T03:50:11.729849+00:00",
        "meta_object_name": "EWS-G2 (GOES 15)",
        "meta_object_id": "2010-008A",
        "meta_epoch": "2025-12-25T19:19:50.262240",
        "meta_mean_motion": 1.00271116,
        "meta_eccentricity": 0.0005615,
        "meta_inclination": 0.844,
        "meta_ra_of_asc_node": 86.0667,
        "meta_arg_of_pericenter": 179.3829,
        "meta_mean_anomaly": 180.4208,
        "meta_ephemeris_type": 0,
        "meta_classification_type": "U",
        "meta_norad_cat_id": 36411,
        "meta_element_set_no": 999,
        "meta_rev_at_epoch": 5790,
        "meta_bstar": 0,
        "meta_mean_motion_dot": 6e-07,
        "meta_mean_motion_ddot": 0,
        "tle_line1": "1 36411U 10008A   25359.80544285  .00000060  00000+0  00000+0 0  9998",
        "tle_line2": "2 36411   0.8440  86.0667 0005615 179.3829 180.4208  1.00271116 57905"
      },
      "geometry": {
        "type": "Point",
        "coordinates": [
          -146.24518026662918,
          0.6615392838390184
        ]
      }
    }
  ]
}